{
    "links": {
        "self": "http://www.neowsapp.com/rest/v1/neo/3579750?api_key=iIulBulltgU6a56xZRHN4H3l9WmuAYTsLGpBGhQ2"
    },
    "id": "3579750",
    "neo_reference_id": "3579750",
    "name": "(2011 SA121)",
    "designation": "2011 SA121",
    "nasa_jpl_url": "http://ssd.jpl.nasa.gov/sbdb.cgi?sstr=3579750",
    "absolute_magnitude_h": 24.9,
    "estimated_diameter": {
        "kilometers": {
            "estimated_diameter_min": 0.0278326768,
            "estimated_diameter_max": 0.0622357573
        },
        "meters": {
            "estimated_diameter_min": 27.8326768072,
            "estimated_diameter_max": 62.2357573367
        },
        "miles": {
            "estimated_diameter_min": 0.0172944182,
            "estimated_diameter_max": 0.0386714948
        },
        "feet": {
            "estimated_diameter_min": 91.3145593761,
            "estimated_diameter_max": 204.1855621004
        }
    },
    "is_potentially_hazardous_asteroid": false,
    "close_approach_data": [
        {
            "close_approach_date": "2011-09-27",
            "close_approach_date_full": "2011-Sep-27 01:10",
            "epoch_date_close_approach": 1317085800000,
            "relative_velocity": {
                "kilometers_per_second": "12.290246832",
                "kilometers_per_hour": "44244.8885953753",
                "miles_per_hour": "27492.0531386097"
            },
            "miss_distance": {
                "astronomical": "0.0756316946",
                "lunar": "29.4207291994",
                "kilometers": "11314340.416650502",
                "miles": "7030405.1306888476"
            },
            "orbiting_body": "Earth"
        }
    ],
    "orbital_data": {
        "orbit_id": "6",
        "orbit_determination_date": "2017-04-06 08:52:38",
        "first_observation_date": "2011-09-27",
        "last_observation_date": "2011-10-01",
        "data_arc_in_days": 4,
        "observations_used": 23,
        "orbit_uncertainty": "8",
        "minimum_orbit_intersection": ".0669228",
        "jupiter_tisserand_invariant": "4.550",
        "epoch_osculation": "2455832.5",
        "eccentricity": ".2812786483600292",
        "semi_major_axis": "1.440746951701091",
        "inclination": "21.74917231407476",
        "ascending_node_longitude": "187.9024519734785",
        "orbital_period": "631.6550766576253",
        "perihelion_distance": "1.035495596497776",
        "perihelion_argument": "147.4422594019863",
        "aphelion_distance": "1.845998306904406",
        "perihelion_time": "2455802.746967076663",
        "mean_anomaly": "16.95718478046371",
        "mean_motion": ".569931301597264",
        "equinox": "J2000",
        "orbit_class": {
            "orbit_class_type": "AMO",
            "orbit_class_description": "Near-Earth asteroid orbits similar to that of 1221 Amor",
            "orbit_class_range": "1.017 AU < q (perihelion) < 1.3 AU"
        }
    },
    "is_sentry_object": false
}